QUANTUTONG 1            
1 43158U 18008D   22045.44681903  .00005859  00000+0  33916-3 0  9997
2 43158  97.3719 105.9070 0012355 207.4615 278.6143 15.12539119224503
S-NET D                 
1 43186U 18014G   22044.69065059  .00002186  00000+0  19279-3 0  9995
2 43186  97.6677 312.7843 0010790   3.5544 356.5753 14.97409862220392
S-NET B                 
1 43187U 18014H   22044.69067365  .00002169  00000+0  19136-3 0  9991
2 43187  97.6674 312.7414 0010797   3.4272 356.7022 14.97408932220396
S-NET A                 
1 43188U 18014J   22045.35912961  .00002132  00000+0  18816-3 0  9991
2 43188  97.6680 313.4538 0010745   1.4608 358.6644 14.97411054220494
S-NET C                 
1 43189U 18014K   22045.35968940  .00002126  00000+0  18764-3 0  9995
2 43189  97.6675 313.3882 0010769   1.3881 358.7369 14.97410210219045
FENGMANIU-1 (FMN-1)     
1 43192U 18015A   22045.47358419  .00021838  00000+0  70712-3 0  9999
2 43192  97.5151 188.0615 0013462 105.2728 328.4024 15.31958683224582
SHAONIAN XING           
1 43199U 18015H   22045.45287351  .00014540  00000+0  49814-3 0  9991
2 43199  97.4925 184.1398 0015566 115.4953 317.3038 15.30193597224612
LUOJIA-1 01             
1 43485U 18048B   22045.53410242  .00000884  00000+0  13247-3 0  9998
2 43485  97.9429 128.7581 0010138 232.5479 127.4829 14.77058375199721
SURFSAT                 
1 43614U 18070B   22044.53153246  .00022494  00000+0  44903-3 0  9998
2 43614  93.0203  46.5613 0014992 135.1658 225.0815 15.46650139191864
CP7 (DAVE)              
1 43615U 18070C   22044.73570773  .00020559  00000+0  41761-3 0  9998
2 43615  93.0207  46.5596 0015176 135.2214 225.0272 15.46147450191878
ELFIN-B                 
1 43616U 18070D   22045.48295746  .00033095  00000+0  54688-3 0  9997
2 43616  93.0152  47.5154 0014592 125.5065 234.7560 15.52008690192200
ELFIN-A                 
1 43617U 18070E   22044.95292237  .00035460  00000+0  56785-3 0  9999
2 43617  93.0199  48.4102 0014143 123.1342 237.1279 15.52883229192156
CZ-4B R/B               
1 43656U 18081B   22044.78813698  .00000173  00000+0  69183-4 0  9995
2 43656  99.3775 168.7768 0209093 139.2931 222.4090 14.30516374172676
CUBEBEL-1 (BSUSAT-1)    
1 43666U 18083E   22045.52894015  .00008663  00000+0  39352-3 0  9999
2 43666  97.4354  75.7361 0015396  48.1369 108.7136 15.20907280182789
CHANGSHAGAOXIN (TY 4-01)
1 43669U 18083H   22045.58090664  .00007657  00000+0  36267-3 0  9990
2 43669  97.4285  72.1345 0011620  47.3441  68.3001 15.19549124182639
TEN-KOH                 
1 43677U 18084G   22044.78714820  .00001032  00000+0  11089-3 0  9994
2 43677  97.9445 173.9037 0015092 323.1634  36.8546 14.90719022179257
DIWATA-2B               
1 43678U 18084H   22045.52208127  .00000878  00000+0  92529-4 0  9992
2 43678  97.9490 177.5259 0009413 339.9573  20.1294 14.91919719179523
STARS-AO                
1 43679U 18084J   22045.36002059  .00001735  00000+0  17283-3 0  9997
2 43679  97.9535 178.9986 0008640 345.3239  14.7728 14.92927915179571
AUTCUBE 2               
1 43681U 18084K   22045.32997876  .00001394  00000+0  14172-3 0  9991
2 43681  97.9503 177.7904 0008902 339.8699  20.2167 14.92421135179487
IRVINE01                
1 43693U 18088D   22045.00572277  .00021144  00000+0  72591-3 0  9991
2 43693  85.0313  33.9595 0013469 198.4432 161.6328 15.29927027181309
ES'HAIL 2               
1 43700U 18090A   22045.15419991  .00000147  00000+0  00000+0 0  9994
2 43700   0.0272 116.0231 0002434 235.2597 234.1733  1.00270223 12033
FACSAT-1                
1 43721U 18096C   22045.40516760  .00016379  00000+0  53550-3 0  9999
2 43721  97.3627 125.7541 0016700 129.5296   2.8722 15.31659435179118
CENTAURI-2              
1 43722U 18096D   22044.79869958  .00016959  00000+0  52202-3 0  9998
2 43722  97.3672 126.5784 0015725 129.2760 230.9880 15.33595976179093
3CAT-1                  
1 43728U 18096K   22044.48886556  .00018573  00000+0  56763-3 0  9993
2 43728  97.3682 126.9722 0015765 133.4426 226.8131 15.33802630179086
INNOSAT-2               
1 43738U 18096V   22045.50636605  .00033099  00000+0  85210-3 0  9995
2 43738  97.3755 132.8261 0019178 122.8523   4.5547 15.38974874179542
REAKTOR HELLO WORLD     
1 43743U 18096AA  22045.17285183  .00010473  00000+0  35187-3 0  9994
2 43743  97.3644 125.8166 0017270 135.4834 224.7798 15.30877883179084
ELYSIUM STAR 2 & LFF    
1 43760U 18099C   22045.48051452  .00004582  00000+0  40011-3 0  9996
2 43760  97.6454 116.7244 0012050 321.8394  38.1974 14.97237195174710
2018-099D               
1 43761U 18099D   22045.17342584  .00000712  00000+0  69265-4 0  9996
2 43761  97.6393 115.1342 0013711 328.2180  31.8212 14.95535030174592
AISTECHSAT 2            
1 43768U 18099L   22045.45528290  .00001634  00000+0  15353-3 0  9996
2 43768  97.6336 114.0470 0010399 326.2172  33.8385 14.95236632174302
FOX-1CLIFF (AO-95)      
1 43770U 18099N   22045.45918523  .00002124  00000+0  19529-3 0  9995
2 43770  97.6369 114.9762 0013461 333.0370  27.0151 14.95773255174621
RANGE-A                 
1 43772U 18099Q   22045.43022782  .00001863  00000+0  17004-3 0  9993
2 43772  97.6476 116.3596 0012967 319.7350  40.2910 14.96218613174636
RANGE-B                 
1 43773U 18099R   22045.15506788  .00001247  00000+0  11748-3 0  9991
2 43773  97.6300 113.7354 0012474 321.5968  38.4364 14.95550152174565
2018-099T               
1 43775U 18099T   22044.74603018  .00001512  00000+0  14117-3 0  9999
2 43775  97.6375 114.4582 0013560 327.2028  32.8350 14.95576663174509
MOVE-II                 
1 43780U 18099Y   22045.43945537  .00002834  00000+0  25308-3 0  9999
2 43780  97.6400 115.8265 0012539 328.0851  31.9610 14.96658626174651
SNUSAT-2                
1 43782U 18099AA  22045.45496797  .00001815  00000+0  16678-3 0  9990
2 43782  97.6367 115.3967 0011501 317.9072  42.1265 14.95977703174647
SNUGLITE                
1 43784U 18099AC  22045.44081995  .00001667  00000+0  15294-3 0  9999
2 43784  97.6331 115.0490 0014129 325.1261  34.9033 14.96142395174664
ITASAT 1                
1 43786U 18099AE  22045.46843273  .00002182  00000+0  19929-3 0  9990
2 43786  97.6394 115.8294 0013892 325.6919  34.3404 14.96008979174661
KAZSCISAT-1             
1 43787U 18099AF  22045.42929078  .00002125  00000+0  19050-3 0  9997
2 43787  97.6317 114.9324 0013055 321.3331  38.6955 14.96771631174696
EAGLET-I                
1 43790U 18099AJ  22045.44960537  .00001116  00000+0  10372-3 0  9995
2 43790  97.6380 116.3138 0012555 329.2594  30.7891 14.96295072174390
ESEO                    
1 43792U 18099AL  22044.47713210  .00001222  00000+0  11413-3 0  9998
2 43792  97.6347 114.7379 0012316 331.3328  28.7215 14.95931443174292
CSIM-FD                 
1 43793U 18099AM  22044.79937317  .00003439  00000+0  30107-3 0  9993
2 43793  97.6399 115.9589 0011427 322.5087  37.5337 14.97308090174372
ASTROCAST 0.1           
1 43798U 18099AS  22044.75192078  .00002292  00000+0  20533-3 0  9999
2 43798  97.6404 115.9567 0010835 310.6896  49.3384 14.96740101174609
JY1SAT (JO-97)          
1 43803U 18099AX  22045.45330778  .00002122  00000+0  19223-3 0  9991
2 43803  97.6350 115.5523 0013983 323.9272  36.1005 14.96350469174671
SUOMI-100               
1 43804U 18099AY  22044.72943570  .00002466  00000+0  22293-3 0  9993
2 43804  97.6352 114.7884 0013942 327.4018  32.6342 14.96293653174572
AL-FARABI 2             
1 43805U 18099AZ  22044.88757435  .00003518  00000+0  31283-3 0  9992
2 43805  97.6378 115.3094 0014123 327.8517  32.1841 14.96657467174612
CENTAURI-1              
1 43809U 18099BD  22044.74765966  .00001893  00000+0  17272-3 0  9995
2 43809  97.6368 115.1345 0014128 329.4786  30.5612 14.96192759174271
CHOMPTT                 
1 43855U 18104G   22044.73758170  .00006466  00000+0  25338-3 0  9994
2 43855  85.0384 133.4909 0015430 342.6220  17.4493 15.25458046175850
DAVINCI                 
1 43857U 18104J   22044.72861941  .00020945  00000+0  71893-3 0  9991
2 43857  85.0321 132.4903 0012418   4.3016 355.8334 15.29947369175908
UWE-4                   
1 43880U 18111E   22045.00555213  .00002612  00000+0  22942-3 0  9991
2 43880  97.6767 313.4876 0012437  20.9807 339.1923 14.97386392169224
ZACUBE-2                
1 43907U 18111AH  22045.50105646  .00004399  00000+0  17217-3 0  9990
2 43907  97.2082 296.2001 0021291 151.0442 332.7018 15.26111018174535
MICRODRAGON             
1 43935U 19003D   22045.12943151  .00004463  00000+0  18473-3 0  9998
2 43935  97.1535  80.8542 0015719 249.9044 110.0503 15.24322127170904
AOBA VELOX-IV           
1 43940U 19003J   22044.65933719  .00018430  00000+0  61684-3 0  9991
2 43940  97.1483  84.6768 0019281 226.0870 133.8781 15.30826874171159
M6P                     
1 44109U 19018AF  22045.49569972  .00013301  00000+0  36970-3 0  9996
2 44109  97.4061 128.7316 0051377 207.6300 152.2212 15.35634617160560
FORMOSAT 7-4            
1 44350U 19036M   22045.43144085  .00003139  00000+0  17494-3 0  9990
2 44350  23.9992 149.1271 0006327  56.6176 303.4932 15.08430649144931
PAINANI 1               
1 44365U 19037A   22044.54149066  .00024107  00000+0  48780-3 0  9992
2 44365  45.0038 350.4554 0005883 176.6808 183.4122 15.46056292148015
ACRUX 1                 
1 44369U 19037E   22045.44293217  .00058973  00000+0  75156-3 0  9999
2 44369  45.0026 305.8132 0013727 194.9061 165.1431 15.58436820148575
METEOR-M2 2             
1 44387U 19038A   22045.44482251  .00000000  00000+0  19194-4 0  9997
2 44387  98.7060   7.3211 0000271 325.7878  34.3282 14.23699201135909
VDNH-80                 
1 44392U 19038G   22045.41436334  .00006504  00000+0  34957-3 0  9999
2 44392  97.6201  14.7336 0019785 192.6060 321.7447 15.15072856144206
D-STAR ONE (LIGHTSAT)   
1 44393U 19038H   22044.47238588  .00006979  00000+0  37541-3 0  9994
2 44393  97.6206  13.6569 0020143 196.5819 163.4756 15.15008007144259
